[{"OBJECT_NAME":"ASTROCAST-0404","OBJECT_ID":"2023-001DH","EPOCH":"2026-03-09T19:24:02.920896","MEAN_MOTION":15.26309833,"ECCENTRICITY":0.00068478,"INCLINATION":97.5646,"RA_OF_ASC_NODE":161.5422,"ARG_OF_PERICENTER":1.1317,"MEAN_ANOMALY":358.9936,"EPHEMERIS_TYPE":0,"CLASSIFICATION_TYPE":"U","NORAD_CAT_ID":55112,"ELEMENT_SET_NO":999,"REV_AT_EPOCH":12936,"BSTAR":0.00034435555,"MEAN_MOTION_DOT":8.87e-5,"MEAN_MOTION_DDOT":0},{"OBJECT_NAME":"STARLINK-33692","OBJECT_ID":"2025-065K","EPOCH":"2026-03-09T19:22:36.682464","MEAN_MOTION":15.27588379,"ECCENTRICITY":0.00018391,"INCLINATION":43.003,"RA_OF_ASC_NODE":110.2375,"ARG_OF_PERICENTER":271.6423,"MEAN_ANOMALY":88.4218,"EPHEMERIS_TYPE":0,"CLASSIFICATION_TYPE":"U","NORAD_CAT_ID":63408,"ELEMENT_SET_NO":999,"REV_AT_EPOCH":5281,"BSTAR":0.00078888279,"MEAN_MOTION_DOT":0.00021515,"MEAN_MOTION_DDOT":0}]
